{"fetched_at":"2026-03-29T16:36:15Z","count":15609,"tles":[{"name":"STARLINK-32005","line1":"1 60034U 24111U   26087.88692366  .00004544  00000+0  16544-3 0  9992","line2":"2 60034  53.1618 346.3847 0001404  92.1111 268.0050 15.30206423101872","category":"Starlink"}]}